STARLINK-2735           
1 48667U 21044AF  24016.08301919  .00006773  00000+0  47311-3 0  9997
2 48667  53.0540  29.3657 0001520 100.5678 259.5482 15.06405178146583
STARLINK-2738           
1 48668U 21044AG  24016.41105908  .00005762  00000+0  40524-3 0  9991
2 48668  53.0549  27.8934 0001556  89.9880 270.1287 15.06412582146699
STARLINK-2707           
1 48669U 21044AH  24016.07564570  .00009824  00000+0  67740-3 0  9990
2 48669  53.0546  29.3972 0001445  85.4496 274.6658 15.06403557146577
STARLINK-2763           
1 48670U 21044AJ  24016.33733696  .00001942  00000+0  14916-3 0  9998
2 48670  53.0550  28.2212 0001490  96.0417 264.0742 15.06410262146613
STARLINK-2745           
1 48671U 21044AK  24016.46542831  .00013934  00000+0  95205-3 0  9996
2 48671  53.0555  27.6362 0001727  93.9575 266.1611 15.06418000146630
STARLINK-2705           
1 48672U 21044AL  24015.99824018  .00003187  00000+0  23276-3 0  9992
2 48672  53.0556  29.7462 0001565 104.7183 255.3979 15.06401673146626
STARLINK-2711           
1 48673U 21044AM  24015.46379259  .00017533  00000+0  11930-2 0  9990
2 48673  53.0546  32.1443 0001422 101.8769 258.2380 15.06400915146540
STARLINK-2712           
1 48674U 21044AN  24016.46636330  .00014057  00000+0  96020-3 0  9990
2 48674  53.0538  27.7572 0001574  92.6013 267.5156 15.06420372146691
STARLINK-2737           
1 48675U 21044AP  24016.11987403  .00007479  00000+0  52030-3 0  9996
2 48675  53.0547  29.2019 0001504  86.5080 273.6081 15.06411359146582
STARLINK-2746           
1 48676U 21044AQ  24016.44791665  .00014079  00000+0  96157-3 0  9998
2 48676  53.0553  27.7275 0001487 100.9097 259.2059 15.06424601146697
STARLINK-2719           
1 48677U 21044AR  24016.31061705  .00016225  00000+0  11057-2 0  9990
2 48677  53.0548  28.3312 0001669 100.7834 259.3343 15.06397179146618
STARLINK-2615           
1 48678U 21044AS  24016.44054674  .00015237  00000+0  10388-2 0  9990
2 48678  53.0543  27.7591 0001533  88.2037 271.9127 15.06427572146634
STARLINK-2648           
1 48679U 21044AT  24016.43685934  .00011873  00000+0  81411-3 0  9997
2 48679  53.0544  27.7762 0001595  89.8912 270.2259 15.06422360146631
STARLINK-2649           
1 48680U 21044AU  24016.43317405  .00014406  00000+0  98332-3 0  9999
2 48680  53.0544  27.7917 0001490  97.1736 262.9423 15.06428328146692
STARLINK-2725           
1 48681U 21044AV  24016.36592665  .00019321  00000+0  13109-2 0  9994
2 48681  53.0554 358.3375 0001471  94.1544 265.9613 15.06443722147092
STARLINK-2743           
1 48682U 21044AW  24016.29680473  .00013972  00000+0  95420-3 0  9995
2 48682  53.0551 348.5740 0001545  94.6813 265.4353 15.06431033147169
STARLINK-2756           
1 48683U 21044AX  24016.31890612  .00017041  00000+0  11592-2 0  9995
2 48683  53.0543 348.3137 0001566 107.7311 252.3849 15.06430611147178
STARLINK-2741           
1 48684U 21044AY  24016.34152130  .00001950  00000+0  14969-3 0  9999
2 48684  53.0556   3.5564 0001649 115.2122 244.9038 15.06413062147025
STARLINK-2751           
1 48685U 21044AZ  24016.35576651  .00018161  00000+0  12335-2 0  9995
2 48685  53.0561 348.1875 0001526  95.1051 265.0113 15.06443449147183
STARLINK-2629           
1 48686U 21044BA  24016.34980550  .00017123  00000+0  11643-2 0  9990
2 48686  53.0559 353.4501 0001646  87.7296 272.3881 15.06442616147163
STARLINK-2627           
1 48687U 21044BB  24016.39123236  .00021843  00000+0  14788-2 0  9993
2 48687  53.0549 342.9818 0001678  92.1527 267.9654 15.06449360147250
STARLINK-2742           
1 48688U 21044BC  24016.32857419  .00019104  00000+0  12963-2 0  9994
2 48688  53.0554 343.2595 0001569  92.7967 267.3201 15.06447774147244
STARLINK-2617           
1 48689U 21044BD  24015.33845977  .00013450  00000+0  91982-3 0  9998
2 48689  53.0553 352.6793 0001655 111.8539 248.2626 15.06410547147025
STARLINK-2740           
1 48690U 21044BE  24016.34009577  .00009059  00000+0  62579-3 0  9990
2 48690  53.0551 358.2079 0001620  88.6301 271.4874 15.06429625147091
STARLINK-2750           
1 48691U 21044BF  24016.31291478  .00016836  00000+0  11453-2 0  9996
2 48691  53.0551 353.3346 0001509  88.5521 271.5641 15.06437651147107
STARLINK-2752           
1 48692U 21044BG  24016.09915017  .00008517  00000+0  58968-3 0  9994
2 48692  53.0561 354.4122 0001649  90.1899 269.9279 15.06420119147070
STARLINK-2618           
1 48693U 21044BH  24016.04059929  .00005754  00000+0  40466-3 0  9995
2 48693  53.0549 359.5540 0001538  88.3642 271.7523 15.06416763146992
STARLINK-2748           
1 48694U 21044BJ  24016.40688625  .00005455  00000+0  38467-3 0  9993
2 48694  53.0555   2.9013 0001827  90.8033 269.3165 15.06412797146973
STARLINK-2616           
1 48695U 21044BK  24016.36360867  .00016451  00000+0  11200-2 0  9997
2 48695  53.0549   3.1518 0001711 112.0244 248.0927 15.06423272147031
STARLINK-2753           
1 48696U 21044BL  24016.35393132  .00004109  00000+0  29447-3 0  9998
2 48696  53.0559   8.1979 0001302  92.8048 267.3090 15.06413660146902
STARLINK-2715           
1 48697U 21044BM  24016.35314452  .00076790  00000+0  38273-2 0  9998
2 48697  53.0504   4.3481 0002176  49.5790 310.5393 15.16880906146956
STARLINK-3003           
1 48879U 21059A   24015.92589132  .00003012  00000+0  23912-3 0  9999
2 48879  97.6575 142.3023 0000872 111.9339 248.1978 15.01245821141202
STARLINK-3004           
1 48880U 21059B   24015.92372460  .00000438  00000+0  38722-4 0  9990
2 48880  97.6579 142.2805 0000675 205.0133 155.1058 15.01251957141206
STARLINK-3005           
1 48881U 21059C   24015.91705888 -.00000288  00000+0 -17839-4 0  9995
2 48881  97.6576 142.2227 0003694 258.2696 101.8114 15.01257470141218
STARLINK-3096           
1 49131U 21082B   24016.13086343 -.00000093  00000+0  30075-7 0  9996
2 49131  70.0004  70.0786 0002464 264.6267  95.4611 14.98328088129591
STARLINK-3090           
1 49132U 21082C   24016.50285318  .00000294  00000+0  32461-4 0  9991
2 49132  70.0002 109.1731 0002930 266.9872  93.0952 14.98319278128669
STARLINK-3077           
1 49133U 21082D   24016.49434195 -.00001253  00000+0 -97247-4 0  9990
2 49133  70.0006 109.1732 0002852 261.7716  98.3120 14.98322709128666
STARLINK-3078           
1 49134U 21082E   24016.49017070 -.00001511  00000+0 -11890-3 0  9996
2 49134  69.9999 109.1866 0002929 266.6917  93.3907 14.98319948129867
STARLINK-3073           
1 49135U 21082F   24016.46049339 -.00000215  00000+0 -10240-4 0  9996
2 49135  70.0006  69.2385 0002296 253.2371 106.8536 14.98325273129658
STARLINK-3084           
1 49136U 21082G   24016.52331461 -.00000624  00000+0 -44500-4 0  9994
2 49136  70.0012  89.0941 0002378 259.7242 100.3649 14.98323006129176
STARLINK-3055           
1 49137U 21082H   24016.51914322 -.00001005  00000+0 -76464-4 0  9995
2 49137  70.0014  89.1092 0002380 254.9286 105.1609 14.98322999129163
STARLINK-3058           
1 49138U 21082J   24016.48599196  .00000228  00000+0  26914-4 0  9999
2 49138  70.0019 109.1998 0002249 257.0226 103.0682 14.98327539128666
STARLINK-3057           
1 49139U 21082K   24016.11834710  .00000408  00000+0  41967-4 0  9999
2 49139  70.0010  70.1092 0002468 265.3048  94.7830 14.98326985129595
STARLINK-3118           
1 49140U 21082L   24016.11000051  .00000205  00000+0  25007-4 0  9996
2 49140  70.0015  70.1388 0002351 256.0123 104.0774 14.98330160129594
STARLINK-3093           
1 49141U 21082M   24016.41506216 -.00000212  00000+0 -99503-5 0  9997
2 49141  70.0012 109.3824 0002602 269.4640  90.6221 14.98324926129852
STARLINK-3042           
1 49142U 21082N   24016.50639425 -.00000753  00000+0 -55320-4 0  9995
2 49142  70.0015  69.1423 0002254 260.1167  99.9738 14.98326728129654
STARLINK-3109           
1 49143U 21082P   24016.51497239 -.00000967  00000+0 -73283-4 0  9997
2 49143  70.0006  89.1214 0002491 255.7185 104.3697 14.98320568129154
STARLINK-3100           
1 49144U 21082Q   24016.47347408  .00000400  00000+0  41306-4 0  9996
2 49144  70.0023 109.2177 0002737 250.9354 109.1508 14.98325203128664
STARLINK-3119           
1 49145U 21082R   24016.48970218 -.00000522  00000+0 -36010-4 0  9992
2 49145  70.0006  69.1694 0002548 262.0237  98.0633 14.98325254129648
STARLINK-3116           
1 49146U 21082S   24016.51079978 -.00001229  00000+0 -95249-4 0  9994
2 49146  70.0009  89.1363 0002418 254.8320 105.2572 14.98321639130328
STARLINK-3071           
1 49147U 21082T   24016.50222031 -.00000183  00000+0 -75232-5 0  9993
2 49147  70.0006  69.1560 0002565 257.7297 102.3575 14.98326445130827
STARLINK-3048           
1 49148U 21082U   24016.16864902 -.00000573  00000+0 -40214-4 0  9999
2 49148  70.0020  89.9770 0002562 274.4740  85.6126 14.98327556130237
STARLINK-3053           
1 49149U 21082V   24016.46930721 -.00001257  00000+0 -97616-4 0  9994
2 49149  70.0008 109.2304 0002740 260.5726  99.5123 14.98320851129860
STARLINK-3104           
1 49150U 21082W   24016.46513156  .00000095  00000+0  15722-4 0  9990
2 49150  70.0011 109.2417 0002563 258.1411 101.9461 14.98324853129867
STARLINK-3102           
1 49151U 21082X   24016.48136189 -.00000632  00000+0 -45175-4 0  9994
2 49151  70.0020  69.1997 0002199 239.4696 120.6246 14.98319082130855
STARLINK-3081           
1 49152U 21082Y   24016.52308382 -.00000500  00000+0 -34128-4 0  9996
2 49152  70.0006  69.0845 0002264 260.2773  99.8130 14.98324441130788
STARLINK-3072           
1 49153U 21082Z   24016.47301236 -.00000186  00000+0 -78040-5 0  9994
2 49153  70.0009  69.2258 0002308 252.6467 107.4440 14.98326736129637
STARLINK-3068           
1 49154U 21082AA  24016.49828084  .00000010  00000+0  85953-5 0  9997
2 49154  70.0003  89.1479 0002616 273.3045  86.7815 14.98324984130238
STARLINK-3060           
1 49155U 21082AB  24016.46884020 -.00000570  00000+0 -39964-4 0  9990
2 49155  70.0003  69.2386 0002505 257.5880 102.4999 14.98325156130728
STARLINK-3085           
